[{"OBJECT_NAME":"YUNHAI-1 02","OBJECT_ID":"2019-063A","EPOCH":"2026-03-09T23:04:05.569248","MEAN_MOTION":14.32707277,"ECCENTRICITY":0.00067235,"INCLINATION":98.4179,"RA_OF_ASC_NODE":82.2649,"ARG_OF_PERICENTER":91.6948,"MEAN_ANOMALY":268.5007,"EPHEMERIS_TYPE":0,"CLASSIFICATION_TYPE":"U","NORAD_CAT_ID":44547,"ELEMENT_SET_NO":999,"REV_AT_EPOCH":33766,"BSTAR":0.00012714191,"MEAN_MOTION_DOT":3.04e-6,"MEAN_MOTION_DDOT":0},{"OBJECT_NAME":"COSMOS 1867 COOLANT","OBJECT_ID":"1987-060E","EPOCH":"2026-03-09T02:27:15.647616","MEAN_MOTION":14.34070357,"ECCENTRICITY":0.00153199,"INCLINATION":65.0088,"RA_OF_ASC_NODE":287.3459,"ARG_OF_PERICENTER":283.0627,"MEAN_ANOMALY":76.8748,"EPHEMERIS_TYPE":0,"CLASSIFICATION_TYPE":"U","NORAD_CAT_ID":39637,"ELEMENT_SET_NO":999,"REV_AT_EPOCH":62334,"BSTAR":0.00015912878,"MEAN_MOTION_DOT":3.45e-6,"MEAN_MOTION_DDOT":0}]
